[{"OBJECT_NAME":"TIANMU-1 19","OBJECT_ID":"2023-208A","EPOCH":"2026-03-09T22:13:36.801696","MEAN_MOTION":15.2984143,"ECCENTRICITY":0.00039292,"INCLINATION":97.4383,"RA_OF_ASC_NODE":184.9132,"ARG_OF_PERICENTER":316.2611,"MEAN_ANOMALY":43.8317,"EPHEMERIS_TYPE":0,"CLASSIFICATION_TYPE":"U","NORAD_CAT_ID":58660,"ELEMENT_SET_NO":999,"REV_AT_EPOCH":12214,"BSTAR":0.00040995676,"MEAN_MOTION_DOT":0.00011779,"MEAN_MOTION_DDOT":0},{"OBJECT_NAME":"STARLINK-31716","OBJECT_ID":"2024-062D","EPOCH":"2026-03-09T16:07:16.130208","MEAN_MOTION":15.30192908,"ECCENTRICITY":9.294e-5,"INCLINATION":53.1595,"RA_OF_ASC_NODE":207.098,"ARG_OF_PERICENTER":87.9131,"MEAN_ANOMALY":272.1976,"EPHEMERIS_TYPE":0,"CLASSIFICATION_TYPE":"U","NORAD_CAT_ID":59377,"ELEMENT_SET_NO":999,"REV_AT_EPOCH":11030,"BSTAR":5.134487e-6,"MEAN_MOTION_DOT":-2.07e-6,"MEAN_MOTION_DDOT":0}]
